NORAD_CAT_ID,OBJECT_NAME,OBJECT_TYPE,EPOCH,MEAN_MOTION,ECCENTRICITY,INCLINATION,RA_OF_ASC_NODE,ARG_OF_PERICENTER,MEAN_ANOMALY,BSTAR,MEAN_MOTION_DOT,MEAN_MOTION_DDOT,TLE_LINE0,TLE_LINE1,TLE_LINE2,SEMIMAJOR_AXIS,PERIOD,APOGEE,PERIGEE,DECAYED
51773.0,STARLINK-3624,PAYLOAD,2024-02-13 16:07:15,15.08846822,0.0001707,53.2177,128.5274,101.4482,258.6701,-5.2359e-05,-1.121e-05,0.0,0 STARLINK-3624,1 51773U 22017F   24044.67170853 -.00001121  00000-0 -52359-4 0  9991,2 51773  53.2177 128.5274 0001707 101.4482 258.6701 15.08846822110087,6917.86,95.437,540.905,538.544,0.0
51773.0,STARLINK-3624,PAYLOAD,2024-02-14 04:50:21,15.08837214,0.0001852,53.2156,126.1471,134.4364,225.678,-7.1079e-05,-1.419e-05,0.0,0 STARLINK-3624,1 51773U 22017F   24045.20163577 -.00001419  00000-0 -71079-4 0  9996,2 51773  53.2156 126.1471 0001852 134.4364 225.6780 15.08837214110168,6917.889,95.438,541.035,538.473,0.0
51773.0,STARLINK-3624,PAYLOAD,2024-02-14 11:11:53,15.08843422,0.000196,53.2157,124.9595,126.4866,233.6306,4.184e-06,-2.22e-06,0.0,0 STARLINK-3624,1 51773U 22017F   24045.46658954 -.00000222  00000-0  41840-5 0  9996,2 51773  53.2157 124.9595 0001960 126.4866 233.6306 15.08843422110206,6917.87,95.437,541.091,538.379,0.0
51773.0,STARLINK-3624,PAYLOAD,2024-02-14 12:47:15,15.08850918,0.0001482,53.2157,124.6613,114.3825,245.7322,0.00010035,1.31e-05,0.0,0 STARLINK-3624,1 51773U 22017F   24045.53282150  .00001310  00000-0  10035-3 0  9993,2 51773  53.2157 124.6613 0001482 114.3825 245.7322 15.08850918108751,6917.847,95.437,540.737,538.687,0.0
51773.0,STARLINK-3624,PAYLOAD,2024-02-14 22:19:35,15.08833378,0.0002045,53.2183,122.8775,73.1122,287.0094,0.00015591,2.194e-05,0.0,0 STARLINK-3624,1 51773U 22017F   24045.93027691  .00002194  00000-0  15591-3 0  9997,2 51773  53.2183 122.8775 0002045  73.1122 287.0094 15.08833378108810,6917.901,95.438,541.18,538.351,0.0
51773.0,STARLINK-3624,PAYLOAD,2024-02-15 12:38:04,15.08840328,0.0001637,53.2153,120.2026,94.0299,266.0881,4.9569e-05,5.01e-06,0.0,0 STARLINK-3624,1 51773U 22017F   24046.52643720  .00000501  00000-0  49569-4 0  9993,2 51773  53.2153 120.2026 0001637  94.0299 266.0881 15.08840328108905,6917.879,95.438,540.877,538.612,0.0
51773.0,STARLINK-3624,PAYLOAD,2024-02-15 22:10:22,15.08846283,0.000164,53.2152,118.4193,90.8351,269.2829,6.9835e-05,8.24e-06,0.0,0 STARLINK-3624,1 51773U 22017F   24046.92387241  .00000824  00000-0  69835-4 0  9996,2 51773  53.2152 118.4193 0001640  90.8351 269.2829 15.08846283108964,6917.861,95.437,540.861,538.592,0.0
51773.0,STARLINK-3624,PAYLOAD,2024-02-16 04:31:55,15.08842671,0.00019,53.2151,117.2302,98.8919,261.2289,0.00013846,1.916e-05,0.0,0 STARLINK-3624,1 51773U 22017F   24047.18883369  .00001916  00000-0  13846-3 0  9990,2 51773  53.2151 117.2302 0001900  98.8919 261.2289 15.08842671110466,6917.872,95.437,541.052,538.423,0.0
51773.0,STARLINK-3624,PAYLOAD,2024-02-16 10:53:27,15.08850208,0.0001428,53.2148,116.0399,88.999,271.1166,0.00011785,1.589e-05,0.0,0 STARLINK-3624,1 51773U 22017F   24047.45378849  .00001589  00000-0  11785-3 0  9998,2 51773  53.2148 116.0399 0001428  88.9990 271.1166 15.08850208109040,6917.849,95.437,540.702,538.726,0.0
51773.0,STARLINK-3624,PAYLOAD,2024-02-16 15:39:35,15.08864325,0.0001537,53.217,115.145,93.9993,266.1174,0.00014612,2.04e-05,0.0,0 STARLINK-3624,1 51773U 22017F   24047.65249625  .00002040  00000-0  14612-3 0  9994,2 51773  53.2170 115.1450 0001537  93.9993 266.1174 15.08864325110537,6917.806,95.436,540.734,538.608,0.0
51773.0,STARLINK-3624,PAYLOAD,2024-02-17 10:44:15,15.08840099,0.0001867,53.2166,111.5783,91.0262,269.0944,7.1002e-05,8.42e-06,0.0,0 STARLINK-3624,1 51773U 22017F   24048.44739611  .00000842  00000-0  71002-4 0  9996,2 51773  53.2166 111.5783 0001867  91.0262 269.0944 15.08840099110657,6917.88,95.438,541.037,538.454,0.0
51773.0,STARLINK-3624,PAYLOAD,2024-02-18 10:34:51,15.08981959,9.93e-05,53.2171,107.1186,72.4166,287.6934,0.0012847,0.00020297,0.0,0 STARLINK-3624,1 51773U 22017F   24049.44086807  .00020297  00000-0  12847-2 0  9995,2 51773  53.2171 107.1186 0000993  72.4166 287.6934 15.08981959110809,6917.447,95.429,539.998,538.625,0.0
51773.0,STARLINK-3624,PAYLOAD,2024-02-18 15:20:54,15.09052165,0.0001295,53.2169,106.2231,80.6366,279.4773,0.0016114,0.000256,0.0,0 STARLINK-3624,1 51773U 22017F   24049.63951431  .00025600  00000-0  16114-2 0  9994,2 51773  53.2169 106.2231 0001295  80.6366 279.4773 15.09052165110838,6917.232,95.424,539.993,538.201,0.0
51773.0,STARLINK-3624,PAYLOAD,2024-02-19 04:03:35,15.09256721,7.73e-05,53.2164,103.8441,51.2717,308.8344,0.0031756,0.00051202,0.0,0 STARLINK-3624,1 51773U 22017F   24050.16915843  .00051202  00000-0  31756-2 0  9997,2 51773  53.2164 103.8441 0000773  51.2717 308.8344 15.09256721110917,6916.607,95.411,539.007,537.937,0.0
51773.0,STARLINK-3624,PAYLOAD,2024-02-19 10:24:40,15.09533623,0.0001052,53.2164,102.6543,78.5753,281.5357,0.0051844,0.00084816,0.0,0 STARLINK-3624,1 51773U 22017F   24050.43380173  .00084816  00000-0  51844-2 0  9996,2 51773  53.2164 102.6543 0001052  78.5753 281.5357 15.09533623110954,6915.761,95.394,538.354,536.899,0.0
51773.0,STARLINK-3624,PAYLOAD,2024-02-19 19:56:27,15.09763182,0.0001204,53.2165,100.8676,97.1328,262.9801,0.0064934,0.00107318,0.0,0 STARLINK-3624,1 51773U 22017F   24050.83087144  .00107318  00000-0  64934-2 0  9999,2 51773  53.2165 100.8676 0001204  97.1328 262.9801 15.09763182111016,6915.06,95.379,537.758,536.092,0.0
51773.0,STARLINK-3624,PAYLOAD,2024-02-20 06:00:00,15.10492528,0.0001059,53.2157,98.984,83.6007,35.4322,-0.0018039,-0.0003021,0.0,0 STARLINK-3624,1 51773U 22017F   24051.25001157 -.00030210  00000-0 -18039-2 0  9999,2 51773  53.2157  98.9840 0001059  83.6007  35.4322 15.10492528111071,6912.834,95.333,535.431,533.967,0.0
51773.0,STARLINK-3624,PAYLOAD,2024-02-20 14:00:01,15.10540479,0.000128,53.2153,97.4852,71.3745,61.2178,-0.025467,-0.00401967,0.0,0 STARLINK-3624,1 51773U 22017F   24051.58334491 -.00401967  00000-0 -25467-1 0  9998,2 51773  53.2153  97.4852 0001280  71.3745  61.2178 15.10540479111124,6912.688,95.33,535.437,533.668,0.0
51773.0,STARLINK-3624,PAYLOAD,2024-02-20 22:00:00,15.10239314,0.0001099,53.2152,95.9835,60.949,85.1227,-0.029413,-0.00456853,0.0,0 STARLINK-3624,1 51773U 22017F   24051.91667824 -.00456853  00000-0 -29413-1 0  9993,2 51773  53.2152  95.9835 0001099  60.9490  85.1227 15.10239314111174,6913.607,95.349,536.231,534.712,0.0
51773.0,STARLINK-3624,PAYLOAD,2024-02-21 00:00:00,15.10147269,0.0001094,53.2151,95.6083,63.2139,176.1695,-0.028153,-0.00437361,0.0,0 STARLINK-3624,1 51773U 22017F   24052.00001157 -.00437361  00000-0 -28153-1 0  9998,2 51773  53.2151  95.6083 0001094  63.2139 176.1695 15.10147269  5782,6913.887,95.355,536.509,534.996,0.0
51773.0,STARLINK-3624,PAYLOAD,2024-02-21 14:00:01,15.09581872,0.0001477,53.2147,92.9874,50.0889,121.7641,-0.028353,-0.00433869,0.0,0 STARLINK-3624,1 51773U 22017F   24052.58334491 -.00433869  00000-0 -28353-1 0  9992,2 51773  53.2147  92.9874 0001477  50.0889 121.7641 15.09581872  5671,6915.614,95.391,538.5,536.457,0.0
51773.0,STARLINK-3624,PAYLOAD,2024-02-21 19:36:18,15.09782215,0.000143,53.2169,91.9389,59.842,300.2714,-0.0028263,-0.00046154,0.0,0 STARLINK-3624,1 51773U 22017F   24052.81687981 -.00046154  00000-0 -28263-2 0  9991,2 51773  53.2169  91.9389 0001430  59.8420 300.2714 15.09782215111310,6915.002,95.378,537.856,535.878,0.0
51773.0,STARLINK-3624,PAYLOAD,2024-02-22 08:19:18,15.09511002,0.00017,53.2165,89.5606,46.1392,313.9741,-0.0065265,-0.00104559,0.0,0 STARLINK-3624,1 51773U 22017F   24053.34673623 -.00104559  00000-0 -65265-2 0  9995,2 51773  53.2165  89.5606 0001700  46.1392 313.9741 15.09511002111391,6915.83,95.395,538.871,536.519,0.0
51773.0,STARLINK-3624,PAYLOAD,2024-02-22 14:40:43,15.09443645,0.000141,53.2168,88.3705,75.4984,284.6165,-0.0066045,-0.00105592,0.0,0 STARLINK-3624,1 51773U 22017F   24053.61161302 -.00105592  00000-0 -66045-2 0  9996,2 51773  53.2168  88.3705 0001410  75.4984 284.6165 15.09443645109973,6916.036,95.399,538.876,536.926,0.0
51773.0,STARLINK-3624,PAYLOAD,2024-02-22 19:26:46,15.09412658,0.0001244,53.2165,87.4761,69.7914,290.3212,-0.0064653,-0.00103317,0.0,0 STARLINK-3624,1 51773U 22017F   24053.81026139 -.00103317  00000-0 -64653-2 0  9992,2 51773  53.2165  87.4761 0001244  69.7914 290.3212 15.09412658111460,6916.131,95.401,538.856,537.135,0.0
51773.0,STARLINK-3624,PAYLOAD,2024-02-23 09:45:04,15.09186295,0.0001899,53.2166,84.7987,87.916,272.205,-0.0041489,-0.00066336,0.0,0 STARLINK-3624,1 51773U 22017F   24054.40629855 -.00066336  00000-0 -41489-2 0  9993,2 51773  53.2166  84.7987 0001899  87.9160 272.2050 15.09186295111556,6916.822,95.416,540.001,537.374,0.0
51773.0,STARLINK-3624,PAYLOAD,2024-02-23 12:55:47,15.09178342,0.0001598,53.2163,84.204,56.4022,303.7122,-0.0041536,-0.00066395,0.0,0 STARLINK-3624,1 51773U 22017F   24054.53874530 -.00066395  00000-0 -41536-2 0  9997,2 51773  53.2163  84.2040 0001598  56.4022 303.7122 15.09178342110117,6916.846,95.416,539.817,537.606,0.0
51773.0,STARLINK-3624,PAYLOAD,2024-02-23 19:17:19,15.09094755,0.0001822,53.2176,83.0146,58.3906,301.7264,-0.0033883,-0.00054184,0.0,0 STARLINK-3624,1 51773U 22017F   24054.80369312 -.00054184  00000-0 -33883-2 0  9993,2 51773  53.2176  83.0146 0001822  58.3906 301.7264 15.09094755111613,6917.102,95.421,540.227,537.707,0.0
51773.0,STARLINK-3624,PAYLOAD,2024-02-24 06:00:00,15.08873224,0.0001628,53.2142,81.0126,69.3535,196.2827,-0.0032634,-0.00051898,0.0,0 STARLINK-3624,1 51773U 22017F   24055.25001157 -.00051898  00000-0 -32634-2 0  9995,2 51773  53.2142  81.0126 0001628  69.3535 196.2827 15.08873224111680,6917.779,95.435,540.77,538.518,0.0
51773.0,STARLINK-3624,PAYLOAD,2024-02-24 14:00:01,15.08822285,0.000162,53.2141,79.5166,65.7336,211.5822,0.00068987,0.00010703,0.0,0 STARLINK-3624,1 51773U 22017F   24055.58335648  .00010703  00000-0  68987-3 0  9995,2 51773  53.2141  79.5166 0001620  65.7336 211.5822 15.08822285  5719,6917.935,95.439,540.92,538.679,0.0
